CCSDS_OMM_VERS = 2.0
CREATION_DATE  = 
ORIGINATOR     = 

OBJECT_NAME    = STARLINK-36822
OBJECT_ID      = 2026-036F
CENTER_NAME    = EARTH
REF_FRAME      = TEME
TIME_SYSTEM    = UTC
MEAN_ELEMENT_THEORY = SGP/SGP4

EPOCH          = 2026-03-12T04:00:01.999584
MEAN_MOTION    = 15.75387801
ECCENTRICITY   = .000162
INCLINATION    = 42.9994
RA_OF_ASC_NODE = 234.6233
ARG_OF_PERICENTER = 268.5014
MEAN_ANOMALY   = 51.8322

EPHEMERIS_TYPE = 0
CLASSIFICATION_TYPE = U
NORAD_CAT_ID   = 67909
ELEMENT_SET_NO = 999
REV_AT_EPOCH   = 404
BSTAR          = -.1444E-1
MEAN_MOTION_DOT = -.1951048E-1
MEAN_MOTION_DDOT = 0

CCSDS_OMM_VERS = 2.0
CREATION_DATE  = 
ORIGINATOR     = 

OBJECT_NAME    = STARLINK-36847
OBJECT_ID      = 2026-036G
CENTER_NAME    = EARTH
REF_FRAME      = TEME
TIME_SYSTEM    = UTC
MEAN_ELEMENT_THEORY = SGP/SGP4

EPOCH          = 2026-03-12T04:00:01.999584
MEAN_MOTION    = 15.74528775
ECCENTRICITY   = .0001723
INCLINATION    = 42.9993
RA_OF_ASC_NODE = 234.6253
ARG_OF_PERICENTER = 268.1868
MEAN_ANOMALY   = 51.1568

EPHEMERIS_TYPE = 0
CLASSIFICATION_TYPE = U
NORAD_CAT_ID   = 67910
ELEMENT_SET_NO = 999
REV_AT_EPOCH   = 404
BSTAR          = -.15003E-1
MEAN_MOTION_DOT = -.199262E-1
MEAN_MOTION_DDOT = 0

CCSDS_OMM_VERS = 2.0
CREATION_DATE  = 
ORIGINATOR     = 

OBJECT_NAME    = STARLINK-36736
OBJECT_ID      = 2026-036H
CENTER_NAME    = EARTH
REF_FRAME      = TEME
TIME_SYSTEM    = UTC
MEAN_ELEMENT_THEORY = SGP/SGP4

EPOCH          = 2026-03-11T21:59:25.556064
MEAN_MOTION    = 15.82125629
ECCENTRICITY   = .0001815
INCLINATION    = 42.9980
RA_OF_ASC_NODE = 236.0884
ARG_OF_PERICENTER = 265.6646
MEAN_ANOMALY   = 94.4019

EPHEMERIS_TYPE = 0
CLASSIFICATION_TYPE = U
NORAD_CAT_ID   = 67911
ELEMENT_SET_NO = 999
REV_AT_EPOCH   = 402
BSTAR          = .13628E-2
MEAN_MOTION_DOT = .298043E-2
MEAN_MOTION_DDOT = 0

CCSDS_OMM_VERS = 2.0
CREATION_DATE  = 
ORIGINATOR     = 

OBJECT_NAME    = STARLINK-36676
OBJECT_ID      = 2026-036J
CENTER_NAME    = EARTH
REF_FRAME      = TEME
TIME_SYSTEM    = UTC
MEAN_ELEMENT_THEORY = SGP/SGP4

EPOCH          = 2026-03-11T21:58:21.900864
MEAN_MOTION    = 15.81980932
ECCENTRICITY   = .0002243
INCLINATION    = 42.9980
RA_OF_ASC_NODE = 236.0836
ARG_OF_PERICENTER = 267.2904
MEAN_ANOMALY   = 92.7711

EPHEMERIS_TYPE = 0
CLASSIFICATION_TYPE = U
NORAD_CAT_ID   = 67912
ELEMENT_SET_NO = 999
REV_AT_EPOCH   = 402
BSTAR          = .14097E-3
MEAN_MOTION_DOT = .29204E-3
MEAN_MOTION_DDOT = 0

CCSDS_OMM_VERS = 2.0
CREATION_DATE  = 
ORIGINATOR     = 

OBJECT_NAME    = STARLINK-36690
OBJECT_ID      = 2026-036K
CENTER_NAME    = EARTH
REF_FRAME      = TEME
TIME_SYSTEM    = UTC
MEAN_ELEMENT_THEORY = SGP/SGP4

EPOCH          = 2026-03-11T21:57:17.113824
MEAN_MOTION    = 15.82071128
ECCENTRICITY   = .0001837
INCLINATION    = 42.9982
RA_OF_ASC_NODE = 236.0766
ARG_OF_PERICENTER = 5.2723
MEAN_ANOMALY   = 354.8168

EPHEMERIS_TYPE = 0
CLASSIFICATION_TYPE = U
NORAD_CAT_ID   = 67913
ELEMENT_SET_NO = 999
REV_AT_EPOCH   = 402
BSTAR          = .11894E-2
MEAN_MOTION_DOT = .258188E-2
MEAN_MOTION_DDOT = 0

CCSDS_OMM_VERS = 2.0
CREATION_DATE  = 
ORIGINATOR     = 

OBJECT_NAME    = STARLINK-36724
OBJECT_ID      = 2026-036L
CENTER_NAME    = EARTH
REF_FRAME      = TEME
TIME_SYSTEM    = UTC
MEAN_ELEMENT_THEORY = SGP/SGP4

EPOCH          = 2026-03-11T20:24:12.243744
MEAN_MOTION    = 15.82180836
ECCENTRICITY   = .0001742
INCLINATION    = 42.9983
RA_OF_ASC_NODE = 236.4507
ARG_OF_PERICENTER = 327.9257
MEAN_ANOMALY   = 32.1509

EPHEMERIS_TYPE = 0
CLASSIFICATION_TYPE = U
NORAD_CAT_ID   = 67914
ELEMENT_SET_NO = 999
REV_AT_EPOCH   = 401
BSTAR          = .21408535E-2
MEAN_MOTION_DOT = .479839E-2
MEAN_MOTION_DDOT = 0

CCSDS_OMM_VERS = 2.0
CREATION_DATE  = 
ORIGINATOR     = 

OBJECT_NAME    = STARLINK-36723
OBJECT_ID      = 2026-036M
CENTER_NAME    = EARTH
REF_FRAME      = TEME
TIME_SYSTEM    = UTC
MEAN_ELEMENT_THEORY = SGP/SGP4

EPOCH          = 2026-03-11T21:56:11.584608
MEAN_MOTION    = 15.82125098
ECCENTRICITY   = .0001972
INCLINATION    = 42.9980
RA_OF_ASC_NODE = 236.0699
ARG_OF_PERICENTER = 247.4678
MEAN_ANOMALY   = 112.5985

EPHEMERIS_TYPE = 0
CLASSIFICATION_TYPE = U
NORAD_CAT_ID   = 67915
ELEMENT_SET_NO = 999
REV_AT_EPOCH   = 402
BSTAR          = .13936E-2
MEAN_MOTION_DOT = .305036E-2
MEAN_MOTION_DDOT = 0

CCSDS_OMM_VERS = 2.0
CREATION_DATE  = 
ORIGINATOR     = 

OBJECT_NAME    = STARLINK-36721
OBJECT_ID      = 2026-036N
CENTER_NAME    = EARTH
REF_FRAME      = TEME
TIME_SYSTEM    = UTC
MEAN_ELEMENT_THEORY = SGP/SGP4

EPOCH          = 2026-03-12T00:00:01.999296
MEAN_MOTION    = 15.82203995
ECCENTRICITY   = .0001415
INCLINATION    = 42.9992
RA_OF_ASC_NODE = 235.5236
ARG_OF_PERICENTER = 260.7202
MEAN_ANOMALY   = 238.2240

EPHEMERIS_TYPE = 0
CLASSIFICATION_TYPE = U
NORAD_CAT_ID   = 67916
ELEMENT_SET_NO = 999
REV_AT_EPOCH   = 401
BSTAR          = -.32502E-2
MEAN_MOTION_DOT = -.642104E-2
MEAN_MOTION_DDOT = 0

CCSDS_OMM_VERS = 2.0
CREATION_DATE  = 
ORIGINATOR     = 

OBJECT_NAME    = STARLINK-36722
OBJECT_ID      = 2026-036P
CENTER_NAME    = EARTH
REF_FRAME      = TEME
TIME_SYSTEM    = UTC
MEAN_ELEMENT_THEORY = SGP/SGP4

EPOCH          = 2026-03-11T21:52:57.415296
MEAN_MOTION    = 15.82093453
ECCENTRICITY   = .0001417
INCLINATION    = 42.9986
RA_OF_ASC_NODE = 236.0516
ARG_OF_PERICENTER = 278.1306
MEAN_ANOMALY   = 81.9405

EPHEMERIS_TYPE = 0
CLASSIFICATION_TYPE = U
NORAD_CAT_ID   = 67917
ELEMENT_SET_NO = 999
REV_AT_EPOCH   = 402
BSTAR          = .11751E-2
MEAN_MOTION_DOT = .255262E-2
MEAN_MOTION_DDOT = 0

CCSDS_OMM_VERS = 2.0
CREATION_DATE  = 
ORIGINATOR     = 

OBJECT_NAME    = STARLINK-36341
OBJECT_ID      = 2026-036Q
CENTER_NAME    = EARTH
REF_FRAME      = TEME
TIME_SYSTEM    = UTC
MEAN_ELEMENT_THEORY = SGP/SGP4

EPOCH          = 2026-03-11T22:09:12.619872
MEAN_MOTION    = 15.69416937
ECCENTRICITY   = .000189
INCLINATION    = 42.9977
RA_OF_ASC_NODE = 236.1408
ARG_OF_PERICENTER = 314.1424
MEAN_ANOMALY   = 45.9287

EPHEMERIS_TYPE = 0
CLASSIFICATION_TYPE = U
NORAD_CAT_ID   = 67918
ELEMENT_SET_NO = 999
REV_AT_EPOCH   = 402
BSTAR          = -.70764E-2
MEAN_MOTION_DOT = -.779797E-2
MEAN_MOTION_DDOT = 0

CCSDS_OMM_VERS = 2.0
CREATION_DATE  = 
ORIGINATOR     = 

OBJECT_NAME    = STARLINK-36663
OBJECT_ID      = 2026-036R
CENTER_NAME    = EARTH
REF_FRAME      = TEME
TIME_SYSTEM    = UTC
MEAN_ELEMENT_THEORY = SGP/SGP4

EPOCH          = 2026-03-12T03:55:31.999584
MEAN_MOTION    = 15.82163510
ECCENTRICITY   = .000135
INCLINATION    = 42.9987
RA_OF_ASC_NODE = 234.4986
ARG_OF_PERICENTER = 292.4766
MEAN_ANOMALY   = 67.5963

EPHEMERIS_TYPE = 0
CLASSIFICATION_TYPE = U
NORAD_CAT_ID   = 67919
ELEMENT_SET_NO = 999
REV_AT_EPOCH   = 406
BSTAR          = .22236E-2
MEAN_MOTION_DOT = .499144E-2
MEAN_MOTION_DDOT = 0

CCSDS_OMM_VERS = 2.0
CREATION_DATE  = 
ORIGINATOR     = 

OBJECT_NAME    = STARLINK-36375
OBJECT_ID      = 2026-036S
CENTER_NAME    = EARTH
REF_FRAME      = TEME
TIME_SYSTEM    = UTC
MEAN_ELEMENT_THEORY = SGP/SGP4

EPOCH          = 2026-03-11T20:20:19.907232
MEAN_MOTION    = 15.78696266
ECCENTRICITY   = .0002783
INCLINATION    = 42.9984
RA_OF_ASC_NODE = 236.4289
ARG_OF_PERICENTER = 244.4375
MEAN_ANOMALY   = 115.6208

EPHEMERIS_TYPE = 0
CLASSIFICATION_TYPE = U
NORAD_CAT_ID   = 67920
ELEMENT_SET_NO = 999
REV_AT_EPOCH   = 401
BSTAR          = -.5117E-2
MEAN_MOTION_DOT = -.839882E-2
MEAN_MOTION_DDOT = 0

