STARLINK-36822          
1 67909U 26036F   26071.16668981 -.01951048  00000+0 -14440-1 0  9992
2 67909  42.9994 234.6233 0001620 268.5014  51.8322 15.75387801  4042
STARLINK-36847          
1 67910U 26036G   26071.16668981 -.01992620  00000+0 -15003-1 0  9991
2 67910  42.9993 234.6253 0001723 268.1868  51.1568 15.74528775  4043
STARLINK-36736          
1 67911U 26036H   26070.91626801  .00298043  00000+0  13628-2 0  9996
2 67911  42.9980 236.0884 0001815 265.6646  94.4019 15.82125629  4023
STARLINK-36676          
1 67912U 26036J   26070.91553126  .00029204  00000+0  14097-3 0  9999
2 67912  42.9980 236.0836 0002243 267.2904  92.7711 15.81980932  4027
STARLINK-36690          
1 67913U 26036K   26070.91478141  .00258188  00000+0  11894-2 0  9999
2 67913  42.9982 236.0766 0001837   5.2723 354.8168 15.82071128  4026
STARLINK-36724          
1 67914U 26036L   26070.85014171  .00479839  00000+0  21409-2 0  9993
2 67914  42.9983 236.4507 0001742 327.9257  32.1509 15.82180836  4017
STARLINK-36723          
1 67915U 26036M   26070.91402297  .00305036  00000+0  13936-2 0  9994
2 67915  42.9980 236.0699 0001972 247.4678 112.5985 15.82125098  4022
STARLINK-36721          
1 67916U 26036N   26071.00002314 -.00642104  00000+0 -32502-2 0  9994
2 67916  42.9992 235.5236 0001415 260.7202 238.2240 15.82203995  4012
STARLINK-36722          
1 67917U 26036P   26070.91177564  .00255262  00000+0  11751-2 0  9990
2 67917  42.9986 236.0516 0001417 278.1306  81.9405 15.82093453  4026
STARLINK-36341          
1 67918U 26036Q   26070.92306273 -.00779797  00000+0 -70764-2 0  9998
2 67918  42.9977 236.1408 0001890 314.1424  45.9287 15.69416937  4024
STARLINK-36663          
1 67919U 26036R   26071.16356481  .00499144  00000+0  22236-2 0  9996
2 67919  42.9987 234.4986 0001350 292.4766  67.5963 15.82163510  4062
STARLINK-36375          
1 67920U 26036S   26070.84745263 -.00839882  00000+0 -51170-2 0  9990
2 67920  42.9984 236.4289 0002783 244.4375 115.6208 15.78696266  4019
